{"fetched_at":"2026-07-10T18:07:53.733Z","source":"https://celestrak.org/NORAD/elements/gp.php?GROUP=planet&FORMAT=JSON","constellation":"superdove","records":[{"OBJECT_NAME":"FLOCK 4G-25","OBJECT_ID":"2025-009AP","EPOCH":"2026-07-10T00:29:19.576608","CLASSIFICATION_TYPE":"U","MEAN_MOTION":15.29938772,"ECCENTRICITY":0.00019598,"INCLINATION":97.4013,"RA_OF_ASC_NODE":273.0034,"ARG_OF_PERICENTER":176.1854,"MEAN_ANOMALY":183.9401,"EPHEMERIS_TYPE":0,"NORAD_CAT_ID":62646,"ELEMENT_SET_NO":999,"REV_AT_EPOCH":8241,"BSTAR":0.00027105448,"MEAN_MOTION_DOT":0.00007781,"MEAN_MOTION_DDOT":0},{"OBJECT_NAME":"FLOCK 4G-23","OBJECT_ID":"2025-009AQ","EPOCH":"2026-07-09T03:56:09.990528","CLASSIFICATION_TYPE":"U","MEAN_MOTION":15.34427723,"ECCENTRICITY":0.00027331,"INCLINATION":97.391,"RA_OF_ASC_NODE":271.8412,"ARG_OF_PERICENTER":180.5045,"MEAN_ANOMALY":179.6196,"EPHEMERIS_TYPE":0,"NORAD_CAT_ID":62647,"ELEMENT_SET_NO":999,"REV_AT_EPOCH":8229,"BSTAR":0.00087567408,"MEAN_MOTION_DOT":0.00029198,"MEAN_MOTION_DDOT":0},{"OBJECT_NAME":"FLOCK 4G-34","OBJECT_ID":"2025-009AT","EPOCH":"2026-07-10T03:42:55.965024","CLASSIFICATION_TYPE":"U","MEAN_MOTION":15.29710337,"ECCENTRICITY":0.00018792,"INCLINATION":97.3961,"RA_OF_ASC_NODE":272.6293,"ARG_OF_PERICENTER":173.3477,"MEAN_ANOMALY":186.7789,"EPHEMERIS_TYPE":0,"NORAD_CAT_ID":62650,"ELEMENT_SET_NO":999,"REV_AT_EPOCH":8242,"BSTAR":0.00025369232,"MEAN_MOTION_DOT":0.00007226,"MEAN_MOTION_DDOT":0},{"OBJECT_NAME":"FLOCK 4G-21","OBJECT_ID":"2025-009AU","EPOCH":"2026-07-09T04:04:26.201280","CLASSIFICATION_TYPE":"U","MEAN_MOTION":15.32579951,"ECCENTRICITY":0.00025158,"INCLINATION":97.3988,"RA_OF_ASC_NODE":272.6227,"ARG_OF_PERICENTER":209.7301,"MEAN_ANOMALY":150.3798,"EPHEMERIS_TYPE":0,"NORAD_CAT_ID":62651,"ELEMENT_SET_NO":999,"REV_AT_EPOCH":8232,"BSTAR":0.00090886367,"MEAN_MOTION_DOT":0.00028591,"MEAN_MOTION_DDOT":0},{"OBJECT_NAME":"FLOCK 4G-31","OBJECT_ID":"2025-009AV","EPOCH":"2026-07-09T11:08:46.415904","CLASSIFICATION_TYPE":"U","MEAN_MOTION":15.29505382,"ECCENTRICITY":0.00013747,"INCLINATION":97.3964,"RA_OF_ASC_NODE":271.9155,"ARG_OF_PERICENTER":168.456,"MEAN_ANOMALY":191.6712,"EPHEMERIS_TYPE":0,"NORAD_CAT_ID":62652,"ELEMENT_SET_NO":999,"REV_AT_EPOCH":8231,"BSTAR":0.00025191745,"MEAN_MOTION_DOT":0.0000713,"MEAN_MOTION_DDOT":0},{"OBJECT_NAME":"FLOCK 4G-4","OBJECT_ID":"2025-009BC","EPOCH":"2026-07-10T03:57:07.238304","CLASSIFICATION_TYPE":"U","MEAN_MOTION":15.31919799,"ECCENTRICITY":0.00041987,"INCLINATION":97.3947,"RA_OF_ASC_NODE":272.4068,"ARG_OF_PERICENTER":206.4718,"MEAN_ANOMALY":153.6309,"EPHEMERIS_TYPE":0,"NORAD_CAT_ID":62659,"ELEMENT_SET_NO":999,"REV_AT_EPOCH":14002,"BSTAR":0.00091431961,"MEAN_MOTION_DOT":0.00028179,"MEAN_MOTION_DDOT":0},{"OBJECT_NAME":"FLOCK 4G-6","OBJECT_ID":"2025-009BD","EPOCH":"2026-07-10T04:11:21.310944","CLASSIFICATION_TYPE":"U","MEAN_MOTION":15.29918305,"ECCENTRICITY":0.00024416,"INCLINATION":97.3942,"RA_OF_ASC_NODE":272.4727,"ARG_OF_PERICENTER":223.1827,"MEAN_ANOMALY":136.9222,"EPHEMERIS_TYPE":0,"NORAD_CAT_ID":62660,"ELEMENT_SET_NO":999,"REV_AT_EPOCH":14001,"BSTAR":0.00025663863,"MEAN_MOTION_DOT":0.00007359,"MEAN_MOTION_DDOT":0},{"OBJECT_NAME":"FLOCK 4G-2","OBJECT_ID":"2025-009BE","EPOCH":"2026-07-09T04:31:20.369280","CLASSIFICATION_TYPE":"U","MEAN_MOTION":15.30246999,"ECCENTRICITY":0.00031813,"INCLINATION":97.4003,"RA_OF_ASC_NODE":272.1248,"ARG_OF_PERICENTER":225.2752,"MEAN_ANOMALY":134.8231,"EPHEMERIS_TYPE":0,"NORAD_CAT_ID":62661,"ELEMENT_SET_NO":999,"REV_AT_EPOCH":13989,"BSTAR":0.00026152711,"MEAN_MOTION_DOT":0.00007578,"MEAN_MOTION_DDOT":0},{"OBJECT_NAME":"FLOCK 4G-5","OBJECT_ID":"2025-009BG","EPOCH":"2026-07-10T03:59:12.266880","CLASSIFICATION_TYPE":"U","MEAN_MOTION":15.3084973,"ECCENTRICITY":0.00030139,"INCLINATION":97.4024,"RA_OF_ASC_NODE":273.4934,"ARG_OF_PERICENTER":197.5963,"MEAN_ANOMALY":162.5174,"EPHEMERIS_TYPE":0,"NORAD_CAT_ID":62663,"ELEMENT_SET_NO":999,"REV_AT_EPOCH":8245,"BSTAR":0.00024298327,"MEAN_MOTION_DOT":0.00007167,"MEAN_MOTION_DDOT":0},{"OBJECT_NAME":"FLOCK 4G-1","OBJECT_ID":"2025-009BK","EPOCH":"2026-07-10T00:33:01.173600","CLASSIFICATION_TYPE":"U","MEAN_MOTION":15.30122478,"ECCENTRICITY":0.00034748,"INCLINATION":97.4019,"RA_OF_ASC_NODE":272.9356,"ARG_OF_PERICENTER":219.2072,"MEAN_ANOMALY":140.8918,"EPHEMERIS_TYPE":0,"NORAD_CAT_ID":62666,"ELEMENT_SET_NO":999,"REV_AT_EPOCH":8240,"BSTAR":0.00027414697,"MEAN_MOTION_DOT":0.00007917,"MEAN_MOTION_DDOT":0},{"OBJECT_NAME":"FLOCK 4G-14","OBJECT_ID":"2025-009BL","EPOCH":"2026-07-10T04:24:00.243360","CLASSIFICATION_TYPE":"U","MEAN_MOTION":15.29669803,"ECCENTRICITY":0.00036559,"INCLINATION":97.4022,"RA_OF_ASC_NODE":272.895,"ARG_OF_PERICENTER":213.2562,"MEAN_ANOMALY":146.8449,"EPHEMERIS_TYPE":0,"NORAD_CAT_ID":62667,"ELEMENT_SET_NO":999,"REV_AT_EPOCH":8241,"BSTAR":0.00027827315,"MEAN_MOTION_DOT":0.00007925,"MEAN_MOTION_DDOT":0},{"OBJECT_NAME":"FLOCK 4G-10","OBJECT_ID":"2025-009BP","EPOCH":"2026-07-10T04:40:11.934912","CLASSIFICATION_TYPE":"U","MEAN_MOTION":15.29770032,"ECCENTRICITY":0.00032307,"INCLINATION":97.3918,"RA_OF_ASC_NODE":272.2101,"ARG_OF_PERICENTER":233.271,"MEAN_ANOMALY":126.8234,"EPHEMERIS_TYPE":0,"NORAD_CAT_ID":62670,"ELEMENT_SET_NO":999,"REV_AT_EPOCH":14005,"BSTAR":0.00027142874,"MEAN_MOTION_DOT":0.00007752,"MEAN_MOTION_DDOT":0},{"OBJECT_NAME":"FLOCK 4G-36","OBJECT_ID":"2025-009BU","EPOCH":"2026-07-10T04:32:11.299488","CLASSIFICATION_TYPE":"U","MEAN_MOTION":15.29742608,"ECCENTRICITY":0.00037565,"INCLINATION":97.401,"RA_OF_ASC_NODE":272.8224,"ARG_OF_PERICENTER":220.0636,"MEAN_ANOMALY":140.0328,"EPHEMERIS_TYPE":0,"NORAD_CAT_ID":62675,"ELEMENT_SET_NO":999,"REV_AT_EPOCH":8241,"BSTAR":0.00028158264,"MEAN_MOTION_DOT":0.00008039,"MEAN_MOTION_DDOT":0},{"OBJECT_NAME":"FLOCK 4G-15","OBJECT_ID":"2025-009BX","EPOCH":"2026-07-09T00:27:11.426400","CLASSIFICATION_TYPE":"U","MEAN_MOTION":15.29812693,"ECCENTRICITY":0.0003983,"INCLINATION":97.4011,"RA_OF_ASC_NODE":271.7994,"ARG_OF_PERICENTER":221.1747,"MEAN_ANOMALY":138.9193,"EPHEMERIS_TYPE":0,"NORAD_CAT_ID":62678,"ELEMENT_SET_NO":999,"REV_AT_EPOCH":13988,"BSTAR":0.0002390942,"MEAN_MOTION_DOT":0.00006828,"MEAN_MOTION_DDOT":0},{"OBJECT_NAME":"FLOCK 4G-30","OBJECT_ID":"2025-009BY","EPOCH":"2026-07-09T04:10:17.577984","CLASSIFICATION_TYPE":"U","MEAN_MOTION":15.3363738,"ECCENTRICITY":0.00037447,"INCLINATION":97.3912,"RA_OF_ASC_NODE":271.448,"ARG_OF_PERICENTER":217.2357,"MEAN_ANOMALY":142.8626,"EPHEMERIS_TYPE":0,"NORAD_CAT_ID":62679,"ELEMENT_SET_NO":999,"REV_AT_EPOCH":13991,"BSTAR":0.00095490969,"MEAN_MOTION_DOT":0.00031072,"MEAN_MOTION_DDOT":0},{"OBJECT_NAME":"FLOCK 4G-18","OBJECT_ID":"2025-009BZ","EPOCH":"2026-07-08T18:56:50.060256","CLASSIFICATION_TYPE":"U","MEAN_MOTION":15.31887826,"ECCENTRICITY":0.00055373,"INCLINATION":97.4006,"RA_OF_ASC_NODE":271.4676,"ARG_OF_PERICENTER":232.7407,"MEAN_ANOMALY":127.333,"EPHEMERIS_TYPE":0,"NORAD_CAT_ID":62680,"ELEMENT_SET_NO":999,"REV_AT_EPOCH":13984,"BSTAR":0.00083397603,"MEAN_MOTION_DOT":0.00025667,"MEAN_MOTION_DDOT":0}]}
